NORAD_CAT_ID,OBJECT_NAME,OBJECT_TYPE,EPOCH,MEAN_MOTION,ECCENTRICITY,INCLINATION,RA_OF_ASC_NODE,ARG_OF_PERICENTER,MEAN_ANOMALY,BSTAR,MEAN_MOTION_DOT,MEAN_MOTION_DDOT,TLE_LINE0,TLE_LINE1,TLE_LINE2,SEMIMAJOR_AXIS,PERIOD,APOGEE,PERIGEE,DECAYED
49168.0,STARLINK-3101,PAYLOAD,2021-11-09 14:00:01,15.69823582,0.0004071,69.9981,328.1054,294.475,127.1045,-0.00088034,-0.00104348,0.0,0 STARLINK-3101,1 49168U 21082AQ  21313.58335648 -.00104348  00000-0 -88034-3 0  9991,2 49168  69.9981 328.1054 0004071 294.4750 127.1045 15.69823582  3684,6737.5390000000025,91.73,362.147,356.661,0.0
49168.0,STARLINK-3101,PAYLOAD,2021-11-09 18:00:00,15.69770689,0.0003836,69.9981,327.6369,292.1236,350.9928,-0.00048801,-0.00058125,0.0,0 STARLINK-3101,1 49168U 21082AQ  21313.75001157 -.00058125  00000-0 -48801-3 0  9994,2 49168  69.9981 327.6369 0003836 292.1236 350.9928 15.69770689  3673,6737.69,91.733,362.14,356.971,0.0
49168.0,STARLINK-3101,PAYLOAD,2021-11-10 02:00:01,15.6976771,0.0003796,69.9983,326.7,289.1871,77.1133,-3.3825e-05,-4.252e-05,0.0,0 STARLINK-3101,1 49168U 21082AQ  21314.08335648 -.00004252  00000-0 -33825-4 0  9999,2 49168  69.9983 326.7000 0003796 289.1871  77.1133 15.69767710  3704,6737.699000000001,91.733,362.121,357.006,0.0
49168.0,STARLINK-3101,PAYLOAD,2021-11-10 06:00:00,15.69762545,0.0003895,69.9986,326.231,291.9764,295.8359,-1.0584e-05,-1.477e-05,0.0,0 STARLINK-3101,1 49168U 21082AQ  21314.25001157 -.00001477  00000-0 -10584-4 0  9996,2 49168  69.9986 326.2310 0003895 291.9764 295.8359 15.69762545 10278,6737.7130000000025,91.734,362.203,356.954,0.0
49168.0,STARLINK-3101,PAYLOAD,2021-11-10 22:00:00,15.69693434,0.0003997,69.9982,324.3572,288.0019,106.1239,0.00079667,0.00095773,0.0,0 STARLINK-3101,1 49168U 21082AQ  21314.91667824  .00095773  00000-0  79667-3 0  9994,2 49168  69.9982 324.3572 0003997 288.0019 106.1239 15.69693434  3673,6737.911,91.738,362.469,357.083,0.0
49168.0,STARLINK-3101,PAYLOAD,2021-11-11 06:00:02,15.69750541,0.0004129,69.9985,323.4202,290.262,187.0231,-3.0052e-05,-3.799e-05,0.0,0 STARLINK-3101,1 49168U 21082AQ  21315.25002315 -.00003799  00000-0 -30052-4 0  9995,2 49168  69.9985 323.4202 0004129 290.2620 187.0231 15.69750541 10432,6737.748000000001,91.734,362.395,356.831,0.0
49168.0,STARLINK-3101,PAYLOAD,2021-11-11 14:00:01,15.69809231,0.0004022,69.998,322.4831,292.6662,267.6712,-0.0011345,-0.00133863,0.0,0 STARLINK-3101,1 49168U 21082AQ  21315.58334491 -.00133863  00000-0 -11345-2 0  9992,2 49168  69.9980 322.4831 0004022 292.6662 267.6712 15.69809231  3687,6737.58,91.731,362.155,356.735,0.0
49168.0,STARLINK-3101,PAYLOAD,2021-11-11 22:00:00,15.69657288,0.0003767,69.998,321.5462,288.309,355.1754,0.00072808,0.00087286,0.0,0 STARLINK-3101,1 49168U 21082AQ  21315.91667824  .00087286  00000-0  72808-3 0  9995,2 49168  69.9980 321.5462 0003767 288.3090 355.1754 15.69657288 10544,6738.015,91.74,362.418,357.341,0.0
49168.0,STARLINK-3101,PAYLOAD,2021-11-12 14:00:01,15.69734914,0.0003896,69.9976,319.6721,294.1691,155.4517,-0.00021704,-0.00026029,0.0,0 STARLINK-3101,1 49168U 21082AQ  21316.58334491 -.00026029  00000-0 -21704-3 0  9999,2 49168  69.9976 319.6721 0003896 294.1691 155.4517 15.69734914 10641,6737.792,91.735,362.283,357.032,0.0
49168.0,STARLINK-3101,PAYLOAD,2021-11-12 22:00:00,15.69696763,0.0003759,69.9977,318.7349,287.751,244.9737,0.00062831,0.00075311,0.0,0 STARLINK-3101,1 49168U 21082AQ  21316.91667824  .00075311  00000-0  62831-3 0  9997,2 49168  69.9977 318.7349 0003759 287.7510 244.9737 15.69696763  3733,6737.901999999999,91.737,362.299,357.2340000000001,0.0
49168.0,STARLINK-3101,PAYLOAD,2021-11-13 06:00:00,15.69744652,0.0003872,69.998,317.7981,291.3874,324.4557,5.8008e-05,6.717e-05,0.0,0 STARLINK-3101,1 49168U 21082AQ  21317.25001157  .00006717  00000-0  58008-4 0  9992,2 49168  69.9980 317.7981 0003872 291.3874 324.4557 15.69744652 10753,6737.765,91.735,362.23800000000006,357.021,0.0
49168.0,STARLINK-3101,PAYLOAD,2021-11-13 14:00:01,15.69748795,0.0003653,69.9998,316.8585,285.5508,53.3386,-2.187e-05,-2.822e-05,0.0,0 STARLINK-3101,1 49168U 21082AQ  21317.58334491 -.00002822  00000-0 -21870-4 0  9990,2 49168  69.9998 316.8585 0003653 285.5508  53.3386 15.69748795 10804,6737.753000000002,91.734,362.079,357.156,0.0
49168.0,STARLINK-3101,PAYLOAD,2021-11-13 22:00:00,15.69744689,0.0003702,69.9976,315.9240000000001,287.6402,134.4934,0.00063719,0.0007654,0.0,0 STARLINK-3101,1 49168U 21082AQ  21317.91667824  .00076540  00000-0  63719-3 0  9999,2 49168  69.9976 315.9240 0003702 287.6402 134.4934 15.69744689 10852,6737.764,91.735,362.124,357.135,0.0
49168.0,STARLINK-3101,PAYLOAD,2021-11-14 14:00:01,15.69806465,0.0004022,69.9968,314.0496,291.6601,296.8059,-0.00090313,-0.00106934,0.0,0 STARLINK-3101,1 49168U 21082AQ  21318.58334491 -.00106934  00000-0 -90313-3 0  9997,2 49168  69.9968 314.0496 0004022 291.6601 296.8059 15.69806465 10951,6737.5880000000025,91.731,362.163,356.74300000000005,0.0
49168.0,STARLINK-3101,PAYLOAD,2021-11-14 22:00:00,15.69717982,0.0004011,69.997,313.1124,285.7367,25.8796,0.00060389,0.00072417,0.0,0 STARLINK-3101,1 49168U 21082AQ  21318.91667824  .00072417  00000-0  60389-3 0  9999,2 49168  69.9970 313.1124 0004011 285.7367  25.8796 15.69717982 11014,6737.840999999999,91.736,362.408,357.00300000000016,0.0
49168.0,STARLINK-3101,PAYLOAD,2021-11-15 14:00:01,15.69800292,0.0003916,69.9969,311.238,291.6366,186.2401,-0.0011505,-0.00135665,0.0,0 STARLINK-3101,1 49168U 21082AQ  21319.58334491 -.00135665  00000-0 -11505-2 0  9996,2 49168  69.9969 311.2380 0003916 291.6366 186.2401 15.69800292 11116,6737.605,91.731,362.109,356.832,0.0
49168.0,STARLINK-3101,PAYLOAD,2021-11-15 22:00:00,15.69702817,0.0003682,69.997,310.3012,286.2673,274.7466,0.00055657,0.00066634,0.0,0 STARLINK-3101,1 49168U 21082AQ  21319.91667824  .00066634  00000-0  55657-3 0  9996,2 49168  69.9970 310.3012 0003682 286.2673 274.7466 15.69702817 11164,6737.884,91.737,362.23,357.26800000000014,0.0
49168.0,STARLINK-3101,PAYLOAD,2021-11-16 06:00:00,15.69725845,0.0003815,69.9968,309.3641,291.1049,353.0088,0.00010014,0.00011748,0.0,0 STARLINK-3101,1 49168U 21082AQ  21320.25001157  .00011748  00000-0  10014-3 0  9990,2 49168  69.9968 309.3641 0003815 291.1049 353.0088 15.69725845 11221,6737.818,91.736,362.254,357.11300000000006,0.0
49168.0,STARLINK-3101,PAYLOAD,2021-11-16 14:00:01,15.69775597,0.0003834,69.9964,308.4267,291.2686,75.9619,-0.00025025,-0.00030015,0.0,0 STARLINK-3101,1 49168U 21082AQ  21320.58334491 -.00030015  00000-0 -25025-3 0  9994,2 49168  69.9964 308.4267 0003834 291.2686  75.9619 15.69775597 11274,6737.676,91.733,362.124,356.958,0.0
49168.0,STARLINK-3101,PAYLOAD,2021-11-16 22:00:00,15.69751556,0.000374,69.9966,307.4895,285.4477,164.9271,0.0005403,0.00064797,0.0,0 STARLINK-3101,1 49168U 21082AQ  21320.91667824  .00064797  00000-0  54030-3 0  9990,2 49168  69.9966 307.4895 0003740 285.4477 164.9271 15.69751556  3702,6737.745,91.734,362.13,357.09,0.0
49168.0,STARLINK-3101,PAYLOAD,2021-11-17 06:00:02,15.697862900000002,0.0003985,69.9968,306.5521,289.5073,244.0959,-0.00055621,-0.00066201,0.0,0 STARLINK-3101,1 49168U 21082AQ  21321.25002315 -.00066201  00000-0 -55621-3 0  9997,2 49168  69.9968 306.5521 0003985 289.5073 244.0959 15.69786290 11376,6737.645,91.732,362.195,356.825,0.0
49168.0,STARLINK-3101,PAYLOAD,2021-11-17 10:00:00,15.69725652,0.0004029,69.9968,306.0835,290.8646,104.2598,0.00030823,0.00036713,0.0,0 STARLINK-3101,1 49168U 21082AQ  21321.41667824  .00036713  00000-0  30823-3 0  9997,2 49168  69.9968 306.0835 0004029 290.8646 104.2598 15.69725652  3686,6737.819,91.736,362.399,356.969,0.0
49168.0,STARLINK-3101,PAYLOAD,2021-11-17 22:00:01,15.69728944,0.0003726,69.997,304.678,285.1972,54.673,-8.594700000000001e-05,-0.00010452,0.0,0 STARLINK-3101,1 49168U 21082AQ  21321.91668981 -.00010452  00000-0 -85947-4 0  9999,2 49168  69.9970 304.6780 0003726 285.1972  54.6730 15.69728944 11484,6737.81,91.736,362.185,357.164,0.0
49168.0,STARLINK-3101,PAYLOAD,2021-11-18 14:00:01,15.69742616,0.0003767,69.9964,302.8036,289.7959,216.1944,-0.0003434,-0.00040999,0.0,0 STARLINK-3101,1 49168U 21082AQ  21322.58334491 -.00040999  00000-0 -34340-3 0  9998,2 49168  69.9964 302.8036 0003767 289.7959 216.1944 15.69742616  3688,6737.77,91.735,362.174,357.097,0.0
49168.0,STARLINK-3101,PAYLOAD,2021-11-18 22:00:00,15.69725702,0.0003679,69.9966,301.8665,283.8196,305.2709,0.00045227,0.00054077,0.0,0 STARLINK-3101,1 49168U 21082AQ  21322.91667824  .00054077  00000-0  45227-3 0  9990,2 49168  69.9966 301.8665 0003679 283.8196 305.2709 15.69725702 11637,6737.819,91.736,362.163,357.205,0.0
49168.0,STARLINK-3101,PAYLOAD,2021-11-19 06:00:02,15.697277800000002,0.0003776,69.9969,300.9292,289.7211,22.546,0.00027652,0.000329,0.0,0 STARLINK-3101,1 49168U 21082AQ  21323.25002315  .00032900  00000-0  27652-3 0  9999,2 49168  69.9969 300.9292 0003776 289.7211  22.5460 15.69727780 11694,6737.813,91.736,362.222,357.134,0.0
49168.0,STARLINK-3101,PAYLOAD,2021-11-19 14:00:01,15.69784318,0.0003651,69.9968,299.9921,289.8505,105.4639,-0.00051212,-0.00060997,0.0,0 STARLINK-3101,1 49168U 21082AQ  21323.58334491 -.00060997  00000-0 -51212-3 0  9996,2 49168  69.9968 299.9921 0003651 289.8505 105.4639 15.69784318  3687,6737.651,91.732,361.976,357.056,0.0
49168.0,STARLINK-3101,PAYLOAD,2021-11-19 22:00:00,15.69748701,0.0003929,70.0002,299.0569,289.3053,188.9778,-2.0988000000000006e-05,-2.717e-05,0.0,0 STARLINK-3101,1 49168U 21082AQ  21323.91667824 -.00002717  00000-0 -20988-4 0  9995,2 49168  70.0002 299.0569 0003929 289.3053 188.9778 15.69748701  3685,6737.753000000002,91.734,362.265,356.971,0.0
49168.0,STARLINK-3101,PAYLOAD,2021-11-20 06:00:00,15.69715394,0.0004001,69.9972,298.118,288.1102,273.439,0.00027742,0.00032993,0.0,0 STARLINK-3101,1 49168U 21082AQ  21324.25001157  .00032993  00000-0  27742-3 0  9995,2 49168  69.9972 298.1180 0004001 288.1102 273.4390 15.69715394 11840,6737.848000000001,91.736,362.409,357.01800000000014,0.0
